NORAD_CAT_ID,OBJECT_NAME,OBJECT_TYPE,EPOCH,MEAN_MOTION,ECCENTRICITY,INCLINATION,RA_OF_ASC_NODE,ARG_OF_PERICENTER,MEAN_ANOMALY,BSTAR,MEAN_MOTION_DOT,MEAN_MOTION_DDOT,TLE_LINE0,TLE_LINE1,TLE_LINE2,SEMIMAJOR_AXIS,PERIOD,APOGEE,PERIGEE,DECAYED
55285.0,STARLINK-5332,PAYLOAD,2023-04-20 06:32:55,15.69914306,0.000371,69.9966,173.6595,265.6236,94.4536,2.1157e-05,2.331e-05,0.0,0 STARLINK-5332,1 55285U 23010S   23110.27285914  .00002331  00000-0  21157-4 0  9995,2 55285  69.9966 173.6595 0003710 265.6236  94.4536 15.69914306 15943,6737.279,91.725,361.644,356.645,0.0
55285.0,STARLINK-5332,PAYLOAD,2023-04-20 21:50:26,15.69928174,0.000339,69.9966,171.8692,266.0682,94.0126,2.7435e-06,1.17e-06,0.0,0 STARLINK-5332,1 55285U 23010S   23110.91002543  .00000117  00000-0  27435-5 0  9997,2 55285  69.9966 171.8692 0003390 266.0682  94.0126 15.69928174 16046,6737.239,91.724,361.388,356.821,0.0
55285.0,STARLINK-5332,PAYLOAD,2023-04-21 03:57:26,15.69929298,0.0003483,69.997,171.1528,265.594,94.4858,3.8485e-06,2.5e-06,0.0,0 STARLINK-5332,1 55285U 23010S   23111.16489008  .00000250  00000-0  38485-5 0  9995,2 55285  69.9970 171.1528 0003483 265.5940  94.4858 15.69929298 14891,6737.236,91.724,361.448,356.755,0.0
55285.0,STARLINK-5332,PAYLOAD,2023-04-21 05:29:11,15.69931454,0.0003528,69.997,170.9732,264.7522,95.3271,6.6862e-06,5.91e-06,0.0,0 STARLINK-5332,1 55285U 23010S   23111.22860426  .00000591  00000-0  66862-5 0  9997,2 55285  69.9970 170.9732 0003528 264.7522  95.3271 15.69931454 16092,6737.23,91.724,361.472,356.718,0.0
55285.0,STARLINK-5332,PAYLOAD,2023-04-21 13:07:57,15.69925442,0.0003451,69.9974,170.0781,265.6702,94.41,3.1453e-06,1.65e-06,0.0,0 STARLINK-5332,1 55285U 23010S   23111.54719219  .00000165  00000-0  31453-5 0  9990,2 55285  69.9974 170.0781 0003451 265.6702  94.4100 15.69925442 16143,6737.247,91.724,361.437,356.787,0.0
55285.0,STARLINK-5332,PAYLOAD,2023-04-22 04:25:28,15.69924928,0.000369,69.997,168.2858,268.394,91.6833,3.2852e-06,1.82e-06,0.0,0 STARLINK-5332,1 55285U 23010S   23112.18435905  .00000182  00000-0  32852-5 0  9991,2 55285  69.9970 168.2858 0003690 268.3940  91.6833 15.69924928 16243,6737.249,91.724,361.6,356.628,0.0
55285.0,STARLINK-5332,PAYLOAD,2023-04-22 05:57:13,15.69925224,0.0003658,69.9972,168.1067,270.5295,89.5482,3.4797e-06,2.05e-06,0.0,0 STARLINK-5332,1 55285U 23010S   23112.24807580  .00000205  00000-0  34797-5 0  9996,2 55285  69.9972 168.1067 0003658 270.5295  89.5482 15.69925224 15063,6737.248,91.724,361.577,356.648,0.0
55285.0,STARLINK-5332,PAYLOAD,2023-04-22 12:04:13,15.69929683,0.0003202,69.9975,167.3896,263.996,96.087,6.2438e-06,5.38e-06,0.0,0 STARLINK-5332,1 55285U 23010S   23112.50293896  .00000538  00000-0  62438-5 0  9996,2 55285  69.9975 167.3896 0003202 263.9960  96.0870 15.69929683 16290,6737.235,91.724,361.257,356.943,0.0
55285.0,STARLINK-5332,PAYLOAD,2023-04-23 12:32:16,15.69920547,0.0003302,69.996,164.5209,277.7702,82.3119,9.1572e-06,8.88e-06,0.0,0 STARLINK-5332,1 55285U 23010S   23113.52241337  .00000888  00000-0  91572-5 0  9991,2 55285  69.9960 164.5209 0003302 277.7702  82.3119 15.69920547 16451,6737.261,91.724,361.351,356.902,0.0
55285.0,STARLINK-5332,PAYLOAD,2023-04-23 14:04:01,15.69926879,0.0003111,69.9969,164.345,268.2405,91.8434,-3.9295e-06,-6.85e-06,0.0,0 STARLINK-5332,1 55285U 23010S   23113.58612834 -.00000685  00000-0 -39295-5 0  9992,2 55285  69.9969 164.3450 0003111 268.2405  91.8434 15.69926879 15277,6737.243,91.724,361.204,357.012,0.0
55285.0,STARLINK-5332,PAYLOAD,2023-04-24 03:49:46,15.69935097,0.0002635,69.9988,162.7334,277.4222,82.6674,2.1627e-05,2.39e-05,0.0,0 STARLINK-5332,1 55285U 23010S   23114.15956872  .00002390  00000-0  21627-4 0  9991,2 55285  69.9988 162.7334 0002635 277.4222  82.6674 15.69935097 15366,6737.22,91.724,360.86,357.309,0.0
55285.0,STARLINK-5332,PAYLOAD,2023-04-25 04:17:51,15.69910774,0.0003561,69.998,159.8667,278.8655,81.2137,-1.7228e-05,-2.283e-05,0.0,0 STARLINK-5332,1 55285U 23010S   23115.17906644 -.00002283  00000-0 -17228-4 0  9991,2 55285  69.9980 159.8667 0003561 278.8655  81.2137 15.69910774 15520,6737.289,91.725,361.553,356.755,0.0
55285.0,STARLINK-5332,PAYLOAD,2023-04-25 11:56:38,15.69894966,0.0003255,69.9978,158.9722,269.0081,91.0742,-3.3811e-05,-4.271e-05,0.0,0 STARLINK-5332,1 55285U 23010S   23115.49766599 -.00004271  00000-0 -33811-4 0  9994,2 55285  69.9978 158.9722 0003255 269.0081  91.0742 15.69894966 15574,6737.335,91.726,361.393,357.006,0.0
55285.0,STARLINK-5332,PAYLOAD,2023-04-26 12:24:36,15.69943244,0.0003138,69.9986,156.1054,274.242,85.8417,5.4501e-05,6.35e-05,0.0,0 STARLINK-5332,1 55285U 23010S   23116.51708678  .00006350  00000-0  54501-4 0  9999,2 55285  69.9986 156.1054 0003138 274.2420  85.8417 15.69943244 16920,6737.196,91.723,361.176,356.947,0.0
55285.0,STARLINK-5332,PAYLOAD,2023-04-26 20:03:22,15.69919849,0.0003059,69.9996,155.2107,261.4418,98.6431,6.2544e-05,7.313e-05,0.0,0 STARLINK-5332,1 55285U 23010S   23116.83567368  .00007313  00000-0  62544-4 0  9999,2 55285  69.9996 155.2107 0003059 261.4418  98.6431 15.69919849 16974,6737.263,91.724,361.189,357.067,0.0
55285.0,STARLINK-5332,PAYLOAD,2023-04-27 05:13:54,15.69905061,0.0003273,69.998,154.1344,264.7405,95.3417,2.9388e-05,3.32e-05,0.0,0 STARLINK-5332,1 55285U 23010S   23117.21799640  .00003320  00000-0  29388-4 0  9995,2 55285  69.9980 154.1344 0003273 264.7405  95.3417 15.69905061 15842,6737.306,91.725,361.376,356.965,0.0
55285.0,STARLINK-5332,PAYLOAD,2023-04-27 12:52:40,15.6991016,0.0003034,69.9985,153.24,274.2294,85.8555,3.7359e-05,4.279e-05,0.0,0 STARLINK-5332,1 55285U 23010S   23117.53657637  .00004279  00000-0  37359-4 0  9990,2 55285  69.9985 153.2400 0003034 274.2294  85.8555 15.69910160 17088,6737.291,91.725,361.2,357.112,0.0
55285.0,STARLINK-5332,PAYLOAD,2023-04-28 05:41:56,15.6993626,0.0003448,69.9976,151.2682,264.1591,95.9211,-2.6543e-05,-3.405e-05,0.0,0 STARLINK-5332,1 55285U 23010S   23118.23745789 -.00003405  00000-0 -26543-4 0  9999,2 55285  69.9976 151.2682 0003448 264.1591  95.9211 15.69936260 16006,6737.216,91.723,361.404,356.758,0.0
55285.0,STARLINK-5332,PAYLOAD,2023-04-28 11:48:57,15.69922984,0.0002771,69.9987,150.5532,266.1807,93.9072,-4.3605e-05,-5.451e-05,0.0,0 STARLINK-5332,1 55285U 23010S   23118.49233463 -.00005451  00000-0 -43605-4 0  9999,2 55285  69.9987 150.5532 0002771 266.1807  93.9072 15.69922984 16049,6737.254,91.724,360.986,357.252,0.0
55285.0,STARLINK-5332,PAYLOAD,2023-04-28 19:27:42,15.69937134,0.000327,69.9986,149.6562,269.1735,90.9086,-2.8611e-05,-3.653e-05,0.0,0 STARLINK-5332,1 55285U 23010S   23118.81090294 -.00003653  00000-0 -28611-4 0  9990,2 55285  69.9986 149.6562 0003270 269.1735  90.9086 15.69937134 16098,6737.214,91.723,361.282,356.876,0.0
55285.0,STARLINK-5332,PAYLOAD,2023-04-29 04:38:12,15.6991824,0.0003484,69.9993,148.5836,265.8271,94.2526,8.0366e-06,7.53e-06,0.0,0 STARLINK-5332,1 55285U 23010S   23119.19320524  .00000753  00000-0  80366-5 0  9996,2 55285  69.9993 148.5836 0003484 265.8271  94.2526 15.69918240 16153,6737.268,91.725,361.48,356.786,0.0
55285.0,STARLINK-5332,PAYLOAD,2023-04-29 12:16:58,15.69927707,0.0002692,69.9992,147.6887,260.7811,99.308,3.0961e-06,1.6e-06,0.0,0 STARLINK-5332,1 55285U 23010S   23119.51178566  .00000160  00000-0  30961-5 0  9997,2 55285  69.9992 147.6887 0002692 260.7811  99.3080 15.69927707 17398,6737.241,91.724,360.919,357.292,0.0
55285.0,STARLINK-5332,PAYLOAD,2023-04-30 02:02:44,15.69915722,0.0003424,69.9984,146.0733,262.1854,97.8953,6.2101e-06,5.34e-06,0.0,0 STARLINK-5332,1 55285U 23010S   23120.08523983  .00000534  00000-0  62101-5 0  9994,2 55285  69.9984 146.0733 0003424 262.1854  97.8953 15.69915722 16293,6737.275,91.725,361.447,356.833,0.0
55285.0,STARLINK-5332,PAYLOAD,2023-04-30 11:13:15,15.69919972,0.0003403,69.9971,144.998,265.1403,94.9405,8.5954e-06,8.21e-06,0.0,0 STARLINK-5332,1 55285U 23010S   23120.46753863  .00000821  00000-0  85954-5 0  9998,2 55285  69.9971 144.9980 0003403 265.1403  94.9405 15.69919972 17540,6737.263,91.724,361.421,356.835,0.0
55285.0,STARLINK-5332,PAYLOAD,2023-05-01 04:02:31,15.69924725,0.000319,69.9973,143.0272,261.8785,98.2048,4.5903e-06,3.39e-06,0.0,0 STARLINK-5332,1 55285U 23010S   23121.16842111  .00000339  00000-0  45903-5 0  9995,2 55285  69.9973 143.0272 0003190 261.8785  98.2048 15.69924725 16467,6737.249,91.724,361.264,356.965,0.0
55285.0,STARLINK-5332,PAYLOAD,2023-05-01 11:41:17,15.69924012,0.0003277,69.9971,142.132,263.7496,96.3326,-2.1066e-06,-4.66e-06,0.0,0 STARLINK-5332,1 55285U 23010S   23121.48700686 -.00000466  00000-0 -21066-5 0  9997,2 55285  69.9971 142.1320 0003277 263.7496  96.3326 15.69924012 17700,6737.251,91.724,361.324,356.909,0.0
55285.0,STARLINK-5332,PAYLOAD,2023-05-02 04:30:33,15.69920155,0.0003677,69.9966,140.1615,270.1335,89.9439,2.0058e-05,2.199e-05,0.0,0 STARLINK-5332,1 55285U 23010S   23122.18788686  .00002199  00000-0  20058-4 0  9993,2 55285  69.9966 140.1615 0003677 270.1335  89.9439 15.69920155 16624,6737.262,91.724,361.605,356.65,0.0
55285.0,STARLINK-5332,PAYLOAD,2023-05-02 10:37:33,15.69924996,0.0003538,69.9962,139.4436,272.8422,87.2368,1.2353e-05,1.273e-05,0.0,0 STARLINK-5332,1 55285U 23010S   23122.44275273  .00001273  00000-0  12353-4 0  9996,2 55285  69.9962 139.4436 0003538 272.8422  87.2368 15.69924996 17859,6737.249,91.724,361.497,356.73,0.0
55285.0,STARLINK-5332,PAYLOAD,2023-05-03 11:05:36,15.69925302,0.0003148,69.9967,136.5782,268.5217,91.5618,-1.315e-06,-3.71e-06,0.0,0 STARLINK-5332,1 55285U 23010S   23123.46222430 -.00000371  00000-0 -13150-5 0  9993,2 55285  69.9967 136.5782 0003148 268.5217  91.5618 15.69925302 16821,6737.248,91.724,361.234,356.992,0.0
55285.0,STARLINK-5332,PAYLOAD,2023-05-04 10:01:53,15.69920245,0.000301,69.9969,133.8908,258.6937,101.3921,-3.0185e-06,-5.75e-06,0.0,0 STARLINK-5332,1 55285U 23010S   23124.41797692 -.00000575  00000-0 -30185-5 0  9999,2 55285  69.9969 133.8908 0003010 258.6937 101.3921 15.69920245 18167,6737.262,91.724,361.155,357.099,0.0
